H-2A R/B                
1 38341U 12025E   25299.83055176  .00005058  00000+0  47127-3 0  9992
2 38341  98.4526 251.4827 0046710  32.2698 328.1362 14.93942053728228
SHIJIAN-16 (SJ-16)      
1 39358U 13057A   25299.99547228  .00001856  00000+0  18677-3 0  9998
2 39358  74.9720  78.0800 0015968  76.0784 284.2179 14.91730334651564
SL-4 R/B                
1 39679U 14021B   25299.30917333  .00017580  00000+0  43641-3 0  9999
2 39679  51.6088 270.7963 0105535 335.2234  24.3700 15.34830939635600
ALOS-2                  
1 39766U 14029A   25299.94097697  .00001603  00000+0  22167-3 0  9995
2 39766  97.9231  35.4531 0001134  96.6195 263.5146 14.79436680617098
YAOGAN-29               
1 41038U 15069A   25299.98915852  .00000723  00000+0  96163-4 0  9991
2 41038  98.0271 322.9985 0002802  76.4482 283.7043 14.82804829536069
ASTRO-H (HITOMI)        
1 41337U 16012A   25299.92874663  .00004390  00000+0  26549-3 0  9994
2 41337  30.9978 139.0494 0009920  66.6695 293.4986 15.08928701532006
HXMT (HUIYAN)           
1 42758U 17034A   25299.74434538  .00007995  00000+0  42168-3 0  9999
2 42758  43.0152  40.2699 0031874 109.4058 251.0238 15.15470545462205
CZ-2C R/B               
1 43521U 18054D   25299.90495020  .00070831  00000+0  69394-3 0  9991
2 43521  35.1345 136.1035 0026317  49.4704 310.8313 15.64453248407691
SAOCOM 1A               
1 43641U 18076A   25299.95461139  .00000730  00000+0  98221-4 0  9990
2 43641  97.8879 125.0525 0001436  86.1178 274.0200 14.82167252381558
H-2A R/B                
1 43682U 18084L   25299.79503841  .00021414  00000+0  62202-3 0  9994
2 43682  98.8822 124.2318 0029362 125.4795 234.9190 15.35093875385198
SAOCOM 1B               
1 46265U 20059A   25299.98589010  .00000725  00000+0  97676-4 0  9998
2 46265  97.8867 124.1866 0001359  88.5875 271.5494 14.82158468278946
CSS (TIANHE)            
1 48274U 21035A   25299.90357436  .00035929  00000+0  42098-3 0  9993
2 48274  41.4668 301.2205 0010975 289.1292  70.8358 15.60728815256719
