CCSDS_OMM_VERS = 2.0
CREATION_DATE  = 
ORIGINATOR     = 

OBJECT_NAME    = H-2A R/B
OBJECT_ID      = 2012-025E
CENTER_NAME    = EARTH
REF_FRAME      = TEME
TIME_SYSTEM    = UTC
MEAN_ELEMENT_THEORY = SGP/SGP4

EPOCH          = 2025-10-26T19:55:59.672064
MEAN_MOTION    = 14.93942053
ECCENTRICITY   = .00467106
INCLINATION    = 98.4526
RA_OF_ASC_NODE = 251.4827
ARG_OF_PERICENTER = 32.2698
MEAN_ANOMALY   = 328.1362

EPHEMERIS_TYPE = 0
CLASSIFICATION_TYPE = U
NORAD_CAT_ID   = 38341
ELEMENT_SET_NO = 999
REV_AT_EPOCH   = 72822
BSTAR          = .4712725E-3
MEAN_MOTION_DOT = .5058E-4
MEAN_MOTION_DDOT = 0

CCSDS_OMM_VERS = 2.0
CREATION_DATE  = 
ORIGINATOR     = 

OBJECT_NAME    = SHIJIAN-16 (SJ-16)
OBJECT_ID      = 2013-057A
CENTER_NAME    = EARTH
REF_FRAME      = TEME
TIME_SYSTEM    = UTC
MEAN_ELEMENT_THEORY = SGP/SGP4

EPOCH          = 2025-10-26T23:53:28.804992
MEAN_MOTION    = 14.91730334
ECCENTRICITY   = .00159689
INCLINATION    = 74.9720
RA_OF_ASC_NODE = 78.0800
ARG_OF_PERICENTER = 76.0784
MEAN_ANOMALY   = 284.2179

EPHEMERIS_TYPE = 0
CLASSIFICATION_TYPE = U
NORAD_CAT_ID   = 39358
ELEMENT_SET_NO = 999
REV_AT_EPOCH   = 65156
BSTAR          = .1867679E-3
MEAN_MOTION_DOT = .1856E-4
MEAN_MOTION_DDOT = 0

CCSDS_OMM_VERS = 2.0
CREATION_DATE  = 
ORIGINATOR     = 

OBJECT_NAME    = SL-4 R/B
OBJECT_ID      = 2014-021B
CENTER_NAME    = EARTH
REF_FRAME      = TEME
TIME_SYSTEM    = UTC
MEAN_ELEMENT_THEORY = SGP/SGP4

EPOCH          = 2025-10-26T07:25:12.575712
MEAN_MOTION    = 15.34830939
ECCENTRICITY   = .01055354
INCLINATION    = 51.6088
RA_OF_ASC_NODE = 270.7963
ARG_OF_PERICENTER = 335.2234
MEAN_ANOMALY   = 24.3700

EPHEMERIS_TYPE = 0
CLASSIFICATION_TYPE = U
NORAD_CAT_ID   = 39679
ELEMENT_SET_NO = 999
REV_AT_EPOCH   = 63560
BSTAR          = .43640879E-3
MEAN_MOTION_DOT = .1758E-3
MEAN_MOTION_DDOT = 0

CCSDS_OMM_VERS = 2.0
CREATION_DATE  = 
ORIGINATOR     = 

OBJECT_NAME    = ALOS-2
OBJECT_ID      = 2014-029A
CENTER_NAME    = EARTH
REF_FRAME      = TEME
TIME_SYSTEM    = UTC
MEAN_ELEMENT_THEORY = SGP/SGP4

EPOCH          = 2025-10-26T22:35:00.410208
MEAN_MOTION    = 14.79436680
ECCENTRICITY   = .0001134
INCLINATION    = 97.9231
RA_OF_ASC_NODE = 35.4531
ARG_OF_PERICENTER = 96.6195
MEAN_ANOMALY   = 263.5146

EPHEMERIS_TYPE = 0
CLASSIFICATION_TYPE = U
NORAD_CAT_ID   = 39766
ELEMENT_SET_NO = 999
REV_AT_EPOCH   = 61709
BSTAR          = .22167286E-3
MEAN_MOTION_DOT = .1603E-4
MEAN_MOTION_DDOT = 0

CCSDS_OMM_VERS = 2.0
CREATION_DATE  = 
ORIGINATOR     = 

OBJECT_NAME    = YAOGAN-29
OBJECT_ID      = 2015-069A
CENTER_NAME    = EARTH
REF_FRAME      = TEME
TIME_SYSTEM    = UTC
MEAN_ELEMENT_THEORY = SGP/SGP4

EPOCH          = 2025-10-26T23:44:23.296128
MEAN_MOTION    = 14.82804829
ECCENTRICITY   = .00028022
INCLINATION    = 98.0271
RA_OF_ASC_NODE = 322.9985
ARG_OF_PERICENTER = 76.4482
MEAN_ANOMALY   = 283.7043

EPHEMERIS_TYPE = 0
CLASSIFICATION_TYPE = U
NORAD_CAT_ID   = 41038
ELEMENT_SET_NO = 999
REV_AT_EPOCH   = 53606
BSTAR          = .96163384E-4
MEAN_MOTION_DOT = .723E-5
MEAN_MOTION_DDOT = 0

CCSDS_OMM_VERS = 2.0
CREATION_DATE  = 
ORIGINATOR     = 

OBJECT_NAME    = ASTRO-H (HITOMI)
OBJECT_ID      = 2016-012A
CENTER_NAME    = EARTH
REF_FRAME      = TEME
TIME_SYSTEM    = UTC
MEAN_ELEMENT_THEORY = SGP/SGP4

EPOCH          = 2025-10-26T22:17:23.708832
MEAN_MOTION    = 15.08928701
ECCENTRICITY   = .000992
INCLINATION    = 30.9978
RA_OF_ASC_NODE = 139.0494
ARG_OF_PERICENTER = 66.6695
MEAN_ANOMALY   = 293.4986

EPHEMERIS_TYPE = 0
CLASSIFICATION_TYPE = U
NORAD_CAT_ID   = 41337
ELEMENT_SET_NO = 999
REV_AT_EPOCH   = 53200
BSTAR          = .26549391E-3
MEAN_MOTION_DOT = .439E-4
MEAN_MOTION_DDOT = 0

CCSDS_OMM_VERS = 2.0
CREATION_DATE  = 
ORIGINATOR     = 

OBJECT_NAME    = HXMT (HUIYAN)
OBJECT_ID      = 2017-034A
CENTER_NAME    = EARTH
REF_FRAME      = TEME
TIME_SYSTEM    = UTC
MEAN_ELEMENT_THEORY = SGP/SGP4

EPOCH          = 2025-10-26T17:51:51.440832
MEAN_MOTION    = 15.15470545
ECCENTRICITY   = .00318741
INCLINATION    = 43.0152
RA_OF_ASC_NODE = 40.2699
ARG_OF_PERICENTER = 109.4058
MEAN_ANOMALY   = 251.0238

EPHEMERIS_TYPE = 0
CLASSIFICATION_TYPE = U
NORAD_CAT_ID   = 42758
ELEMENT_SET_NO = 999
REV_AT_EPOCH   = 46220
BSTAR          = .42168443E-3
MEAN_MOTION_DOT = .7995E-4
MEAN_MOTION_DDOT = 0

CCSDS_OMM_VERS = 2.0
CREATION_DATE  = 
ORIGINATOR     = 

OBJECT_NAME    = CZ-2C R/B
OBJECT_ID      = 2018-054D
CENTER_NAME    = EARTH
REF_FRAME      = TEME
TIME_SYSTEM    = UTC
MEAN_ELEMENT_THEORY = SGP/SGP4

EPOCH          = 2025-10-26T21:43:07.697280
MEAN_MOTION    = 15.64453248
ECCENTRICITY   = .00263171
INCLINATION    = 35.1345
RA_OF_ASC_NODE = 136.1035
ARG_OF_PERICENTER = 49.4704
MEAN_ANOMALY   = 310.8313

EPHEMERIS_TYPE = 0
CLASSIFICATION_TYPE = U
NORAD_CAT_ID   = 43521
ELEMENT_SET_NO = 999
REV_AT_EPOCH   = 40769
BSTAR          = .69393577E-3
MEAN_MOTION_DOT = .70831E-3
MEAN_MOTION_DDOT = 0

CCSDS_OMM_VERS = 2.0
CREATION_DATE  = 
ORIGINATOR     = 

OBJECT_NAME    = SAOCOM 1A
OBJECT_ID      = 2018-076A
CENTER_NAME    = EARTH
REF_FRAME      = TEME
TIME_SYSTEM    = UTC
MEAN_ELEMENT_THEORY = SGP/SGP4

EPOCH          = 2025-10-26T22:54:38.424096
MEAN_MOTION    = 14.82167252
ECCENTRICITY   = .00014367
INCLINATION    = 97.8879
RA_OF_ASC_NODE = 125.0525
ARG_OF_PERICENTER = 86.1178
MEAN_ANOMALY   = 274.0200

EPHEMERIS_TYPE = 0
CLASSIFICATION_TYPE = U
NORAD_CAT_ID   = 43641
ELEMENT_SET_NO = 999
REV_AT_EPOCH   = 38155
BSTAR          = .98221375E-4
MEAN_MOTION_DOT = .73E-5
MEAN_MOTION_DDOT = 0

CCSDS_OMM_VERS = 2.0
CREATION_DATE  = 
ORIGINATOR     = 

OBJECT_NAME    = H-2A R/B
OBJECT_ID      = 2018-084L
CENTER_NAME    = EARTH
REF_FRAME      = TEME
TIME_SYSTEM    = UTC
MEAN_ELEMENT_THEORY = SGP/SGP4

EPOCH          = 2025-10-26T19:04:51.318624
MEAN_MOTION    = 15.35093875
ECCENTRICITY   = .00293626
INCLINATION    = 98.8822
RA_OF_ASC_NODE = 124.2318
ARG_OF_PERICENTER = 125.4795
MEAN_ANOMALY   = 234.9190

EPHEMERIS_TYPE = 0
CLASSIFICATION_TYPE = U
NORAD_CAT_ID   = 43682
ELEMENT_SET_NO = 999
REV_AT_EPOCH   = 38519
BSTAR          = .62202034E-3
MEAN_MOTION_DOT = .21414E-3
MEAN_MOTION_DDOT = 0

CCSDS_OMM_VERS = 2.0
CREATION_DATE  = 
ORIGINATOR     = 

OBJECT_NAME    = SAOCOM 1B
OBJECT_ID      = 2020-059A
CENTER_NAME    = EARTH
REF_FRAME      = TEME
TIME_SYSTEM    = UTC
MEAN_ELEMENT_THEORY = SGP/SGP4

EPOCH          = 2025-10-26T23:39:40.904640
MEAN_MOTION    = 14.82158468
ECCENTRICITY   = .00013597
INCLINATION    = 97.8867
RA_OF_ASC_NODE = 124.1866
ARG_OF_PERICENTER = 88.5875
MEAN_ANOMALY   = 271.5494

EPHEMERIS_TYPE = 0
CLASSIFICATION_TYPE = U
NORAD_CAT_ID   = 46265
ELEMENT_SET_NO = 999
REV_AT_EPOCH   = 27894
BSTAR          = .97676336E-4
MEAN_MOTION_DOT = .725E-5
MEAN_MOTION_DDOT = 0

CCSDS_OMM_VERS = 2.0
CREATION_DATE  = 
ORIGINATOR     = 

OBJECT_NAME    = CSS (TIANHE)
OBJECT_ID      = 2021-035A
CENTER_NAME    = EARTH
REF_FRAME      = TEME
TIME_SYSTEM    = UTC
MEAN_ELEMENT_THEORY = SGP/SGP4

EPOCH          = 2025-10-26T21:41:08.824704
MEAN_MOTION    = 15.60728815
ECCENTRICITY   = .00109756
INCLINATION    = 41.4668
RA_OF_ASC_NODE = 301.2205
ARG_OF_PERICENTER = 289.1292
MEAN_ANOMALY   = 70.8358

EPHEMERIS_TYPE = 0
CLASSIFICATION_TYPE = U
NORAD_CAT_ID   = 48274
ELEMENT_SET_NO = 999
REV_AT_EPOCH   = 25671
BSTAR          = .42097959E-3
MEAN_MOTION_DOT = .35929E-3
MEAN_MOTION_DDOT = 0

